[Satellite]
VERSION=1.1
NAME=HODOYOSHI-3
NICKNAME=HODOYOSHI-3
TLE1=1 40015U 14033F   17186.18351649  .00000070  00000-0  16789-4 0  9993
TLE2=2 40015  97.8731  78.9672 0036151 216.6901 143.1835 14.78256087164113
